start=new Date('2022-07-28T00:00:00.000Z').valueOf();
sats=[{"EPHEMERIS_TYPE":"0","MEAN_ANOMALY":"272.5066","TIME_SYSTEM":"UTC","MEAN_MOTION_DDOT":"0.0000000000000","TLE_LINE2":"2 47802  53.0545  66.0124 0001507  87.6096 272.5066 15.06406307 77456","ECCENTRICITY":"0.00015070","LAUNCH_DATE":"2021-03-11","CENTER_NAME":"EARTH","OBJECT_NAME":"STARLINK-2383","COUNTRY_CODE":"US","CLASSIFICATION_TYPE":"U","OBJECT_TYPE":"PAYLOAD","PERIAPSIS":"546.151","FILE":"3523323","INCLINATION":"53.0545","APOAPSIS":"548.238","REV_AT_EPOCH":"7745","BSTAR":"0.00014927000000","MEAN_ELEMENT_THEORY":"SGP4","DECAY_DATE":null,"SITE":"AFETR","OBJECT_ID":"2021-018R","MEAN_MOTION_DOT":"0.00001943","EPOCH":"2022-07-27T20:49:51.217824","NORAD_CAT_ID":"47802","GP_ID":"208999400","RA_OF_ASC_NODE":"66.0124","SEMIMAJOR_AXIS":"6925.329","REF_FRAME":"TEME","ELEMENT_SET_NO":"999","MEAN_MOTION":"15.06406307","RCS_SIZE":"LARGE","ARG_OF_PERICENTER":"87.6096","PERIOD":"95.592","TLE_LINE1":"1 47802U 21018R   22208.86795391  .00001943  00000-0  14927-3 0  9998"},{"PERIOD":"95.592","TLE_LINE1":"1 47803U 21018S   22208.79837190  .00002526  00000-0  18837-3 0  9997","RCS_SIZE":"LARGE","ARG_OF_PERICENTER":"86.7377","MEAN_MOTION":"15.06405572","NORAD_CAT_ID":"47803","GP_ID":"208998150","SEMIMAJOR_AXIS":"6925.331","RA_OF_ASC_NODE":"41.3419","ELEMENT_SET_NO":"999","REF_FRAME":"TEME","MEAN_ELEMENT_THEORY":"SGP4","BSTAR":"0.00018837000000","REV_AT_EPOCH":"7778","DECAY_DATE":null,"SITE":"AFETR","MEAN_MOTION_DOT":"0.00002526","EPOCH":"2022-07-27T19:09:39.332160","OBJECT_ID":"2021-018S","FILE":"3523323","INCLINATION":"53.0562","APOAPSIS":"548.145","OBJECT_NAME":"STARLINK-2384","PERIAPSIS":"546.248","COUNTRY_CODE":"US","OBJECT_TYPE":"PAYLOAD","CLASSIFICATION_TYPE":"U","LAUNCH_DATE":"2021-03-11","CENTER_NAME":"EARTH","EPHEMERIS_TYPE":"0","MEAN_ANOMALY":"273.3768","MEAN_MOTION_DDOT":"0.0000000000000","TIME_SYSTEM":"UTC","ECCENTRICITY":"0.00013690","TLE_LINE2":"2 47803  53.0562  41.3419 0001369  86.7377 273.3768 15.06405572 77784"},{"NORAD_CAT_ID":"47804","GP_ID":"208997908","REF_FRAME":"TEME","ELEMENT_SET_NO":"999","SEMIMAJOR_AXIS":"6925.350","RA_OF_ASC_NODE":"41.2741","DECAY_DATE":null,"MEAN_ELEMENT_THEORY":"SGP4","BSTAR":"0.00007954600000","REV_AT_EPOCH":"7778","EPOCH":"2022-07-27T19:30:54.098496","MEAN_MOTION_DOT":"0.00000903","OBJECT_ID":"2021-018T","SITE":"AFETR","PERIOD":"95.592","TLE_LINE1":"1 47804U 21018T   22208.81312614  .00000903  00000-0  79546-4 0  9992","RCS_SIZE":"LARGE","ARG_OF_PERICENTER":"80.3933","MEAN_MOTION":"15.06399683","CENTER_NAME":"EARTH","LAUNCH_DATE":"2021-03-11","MEAN_ANOMALY":"279.7242","EPHEMERIS_TYPE":"0","ECCENTRICITY":"0.00016460","TLE_LINE2":"2 47804  53.0547  41.2741 0001646  80.3933 279.7242 15.06399683 77783","MEAN_MOTION_DDOT":"0.0000000000000","TIME_SYSTEM":"UTC","FILE":"3523323","APOAPSIS":"548.354","INCLINATION":"53.0547","OBJECT_NAME":"STARLINK-2385","PERIAPSIS":"546.075","COUNTRY_CODE":"US","CLASSIFICATION_TYPE":"U","OBJECT_TYPE":"PAYLOAD"},{"MEAN_ELEMENT_THEORY":"SGP4","BSTAR":"0.00006535300000","REV_AT_EPOCH":"7743","DECAY_DATE":null,"SITE":"AFETR","OBJECT_ID":"2021-018U","MEAN_MOTION_DOT":"0.00000692","EPOCH":"2022-07-27T18:43:10.503552","GP_ID":"208974391","NORAD_CAT_ID":"47805","SEMIMAJOR_AXIS":"6925.376","RA_OF_ASC_NODE":"41.6623","ELEMENT_SET_NO":"999","REF_FRAME":"TEME","ARG_OF_PERICENTER":"90.7193","RCS_SIZE":"LARGE","MEAN_MOTION":"15.06391064","PERIOD":"95.593","TLE_LINE1":"1 47805U 21018U   22208.77998268  .00000692  00000-0  65353-4 0  9999","EPHEMERIS_TYPE":"0","MEAN_ANOMALY":"269.3969","MEAN_MOTION_DDOT":"0.0000000000000","TIME_SYSTEM":"UTC","TLE_LINE2":"2 47805  53.0577  41.6623 0001507  90.7193 269.3969 15.06391064 77437","ECCENTRICITY":"0.00015070","LAUNCH_DATE":"2021-03-11","CENTER_NAME":"EARTH","OBJECT_NAME":"STARLINK-2386","PERIAPSIS":"546.197","COUNTRY_CODE":"US","CLASSIFICATION_TYPE":"U","OBJECT_TYPE":"PAYLOAD","FILE":"3523199","INCLINATION":"53.0577","APOAPSIS":"548.285"},{"FILE":"3523199","APOAPSIS":"548.352","INCLINATION":"53.0544","OBJECT_NAME":"STARLINK-2387","PERIAPSIS":"546.024","OBJECT_TYPE":"PAYLOAD","COUNTRY_CODE":"US","CLASSIFICATION_TYPE":"U","CENTER_NAME":"EARTH","LAUNCH_DATE":"2021-03-11","MEAN_ANOMALY":"287.8782","EPHEMERIS_TYPE":"0","ECCENTRICITY":"0.00016810","TLE_LINE2":"2 47806  53.0544  56.1085 0001681  72.2390 287.8782 15.06408439 77244","MEAN_MOTION_DDOT":"0.0000000000000","TIME_SYSTEM":"UTC","PERIOD":"95.592","TLE_LINE1":"1 47806U 21018V   22208.85044472  .00002154  00000-0  16341-3 0  9995","ARG_OF_PERICENTER":"72.2390","RCS_SIZE":"LARGE","MEAN_MOTION":"15.06408439","GP_ID":"208974388","NORAD_CAT_ID":"47806","ELEMENT_SET_NO":"999","REF_FRAME":"TEME","SEMIMAJOR_AXIS":"6925.323","RA_OF_ASC_NODE":"56.1085","DECAY_DATE":null,"MEAN_ELEMENT_THEORY":"SGP4","BSTAR":"0.00016341000000","REV_AT_EPOCH":"7724","MEAN_MOTION_DOT":"0.00002154","EPOCH":"2022-07-27T20:24:38.423808","OBJECT_ID":"2021-018V","SITE":"AFETR"},{"CENTER_NAME":"EARTH","LAUNCH_DATE":"2021-03-11","MEAN_ANOMALY":"281.2320","EPHEMERIS_TYPE":"0","TLE_LINE2":"2 47807  53.0560  31.4516 0001419  78.8829 281.2320 15.06408449 77917","ECCENTRICITY":"0.00014190","MEAN_MOTION_DDOT":"0.0000000000000","TIME_SYSTEM":"UTC","FILE":"3523323","APOAPSIS":"548.170","INCLINATION":"53.0560","OBJECT_NAME":"STARLINK-2388","PERIAPSIS":"546.205","OBJECT_TYPE":"PAYLOAD","COUNTRY_CODE":"US","CLASSIFICATION_TYPE":"U","GP_ID":"208997658","NORAD_CAT_ID":"47807","REF_FRAME":"TEME","ELEMENT_SET_NO":"999","SEMIMAJOR_AXIS":"6925.323","RA_OF_ASC_NODE":"31.4516","DECAY_DATE":null,"BSTAR":"0.00024544000000","MEAN_ELEMENT_THEORY":"SGP4","REV_AT_EPOCH":"7791","MEAN_MOTION_DOT":"0.00003377","EPOCH":"2022-07-27T18:33:50.205600","OBJECT_ID":"2021-018W","SITE":"AFETR","PERIOD":"95.592","TLE_LINE1":"1 47807U 21018W   22208.77349775  .00003377  00000-0  24544-3 0  9993","ARG_OF_PERICENTER":"78.8829","RCS_SIZE":"LARGE","MEAN_MOTION":"15.06408449"},{"FILE":"3523210","INCLINATION":"53.0553","APOAPSIS":"548.216","OBJECT_NAME":"STARLINK-2389","COUNTRY_CODE":"US","OBJECT_TYPE":"PAYLOAD","CLASSIFICATION_TYPE":"U","PERIAPSIS":"546.223","LAUNCH_DATE":"2021-03-11","CENTER_NAME":"EARTH","EPHEMERIS_TYPE":"0","MEAN_ANOMALY":"286.1710","TIME_SYSTEM":"UTC","MEAN_MOTION_DDOT":"0.0000000000000","TLE_LINE2":"2 47808  53.0553  56.0228 0001439  73.9437 286.1710 15.06397952 77245","ECCENTRICITY":"0.00014390","PERIOD":"95.592","TLE_LINE1":"1 47808U 21018X   22208.86887938  .00000392  00000-0  45228-4 0  9999","RCS_SIZE":"LARGE","MEAN_MOTION":"15.06397952","ARG_OF_PERICENTER":"73.9437","NORAD_CAT_ID":"47808","GP_ID":"208974406","RA_OF_ASC_NODE":"56.0228","SEMIMAJOR_AXIS":"6925.355","ELEMENT_SET_NO":"999","REF_FRAME":"TEME","REV_AT_EPOCH":"7724","MEAN_ELEMENT_THEORY":"SGP4","BSTAR":"0.00004522800000","DECAY_DATE":null,"SITE":"AFETR","EPOCH":"2022-07-27T20:51:11.178432","MEAN_MOTION_DOT":"0.00000392","OBJECT_ID":"2021-018X"},{"LAUNCH_DATE":"2021-03-11","CENTER_NAME":"EARTH","TIME_SYSTEM":"UTC","MEAN_MOTION_DDOT":"0.0000000000000","ECCENTRICITY":"0.00016300","TLE_LINE2":"2 47809  53.0556  60.9939 0001630  72.7365 287.3802 15.06392843 77173","EPHEMERIS_TYPE":"0","MEAN_ANOMALY":"287.3802","INCLINATION":"53.0556","APOAPSIS":"548.364","FILE":"3523286","CLASSIFICATION_TYPE":"U","COUNTRY_CODE":"US","OBJECT_TYPE":"PAYLOAD","PERIAPSIS":"546.107","OBJECT_NAME":"STARLINK-2390","RA_OF_ASC_NODE":"60.9939","SEMIMAJOR_AXIS":"6925.370","ELEMENT_SET_NO":"999","REF_FRAME":"TEME","GP_ID":"208976110","NORAD_CAT_ID":"47809","SITE":"AFETR","MEAN_MOTION_DOT":"0.00003598","EPOCH":"2022-07-27T20:57:07.510176","OBJECT_ID":"2021-018Y","REV_AT_EPOCH":"7717","BSTAR":"0.00026038000000","MEAN_ELEMENT_THEORY":"SGP4","DECAY_DATE":null,"TLE_LINE1":"1 47809U 21018Y   22208.87300359  .00003598  00000-0  26038-3 0  9996","PERIOD":"95.593","ARG_OF_PERICENTER":"72.7365","RCS_SIZE":"LARGE","MEAN_MOTION":"15.06392843"},{"OBJECT_NAME":"STARLINK-2391","PERIAPSIS":"546.110","COUNTRY_CODE":"US","CLASSIFICATION_TYPE":"U","OBJECT_TYPE":"PAYLOAD","FILE":"3523323","APOAPSIS":"548.295","INCLINATION":"53.0536","MEAN_ANOMALY":"273.8237","EPHEMERIS_TYPE":"0","TLE_LINE2":"2 47810  53.0536  71.4830 0001578  86.2933 273.8237 15.06403600 77415","ECCENTRICITY":"0.00015780","MEAN_MOTION_DDOT":"0.0000000000000","TIME_SYSTEM":"UTC","CENTER_NAME":"EARTH","LAUNCH_DATE":"2021-03-11","ARG_OF_PERICENTER":"86.2933","RCS_SIZE":"LARGE","MEAN_MOTION":"15.06403600","PERIOD":"95.592","TLE_LINE1":"1 47810U 21018Z   22208.76612923  .00001833  00000-0  14191-3 0  9996","DECAY_DATE":null,"BSTAR":"0.00014191000000","MEAN_ELEMENT_THEORY":"SGP4","REV_AT_EPOCH":"7741","MEAN_MOTION_DOT":"0.00001833","EPOCH":"2022-07-27T18:23:13.565472","OBJECT_ID":"2021-018Z","SITE":"AFETR","NORAD_CAT_ID":"47810","GP_ID":"208999401","ELEMENT_SET_NO":"999","REF_FRAME":"TEME","SEMIMAJOR_AXIS":"6925.338","RA_OF_ASC_NODE":"71.4830"},{"OBJECT_NAME":"STARLINK-2392","PERIAPSIS":"546.119","COUNTRY_CODE":"US","OBJECT_TYPE":"PAYLOAD","CLASSIFICATION_TYPE":"U","FILE":"3523323","INCLINATION":"53.0550","APOAPSIS":"548.332","EPHEMERIS_TYPE":"0","MEAN_ANOMALY":"269.3779","MEAN_MOTION_DDOT":"0.0000000000000","TIME_SYSTEM":"UTC","TLE_LINE2":"2 47811  53.0550  41.3021 0001598  90.7393 269.3779 15.06396126 77844","ECCENTRICITY":"0.00015980","LAUNCH_DATE":"2021-03-11","CENTER_NAME":"EARTH","ARG_OF_PERICENTER":"90.7393","RCS_SIZE":"LARGE","MEAN_MOTION":"15.06396126","PERIOD":"95.592","TLE_LINE1":"1 47811U 21018AA  22208.80575604  .00000969  00000-0  83975-4 0  9992","BSTAR":"0.00008397500000","MEAN_ELEMENT_THEORY":"SGP4","REV_AT_EPOCH":"7784","DECAY_DATE":null,"SITE":"AFETR","OBJECT_ID":"2021-018AA","MEAN_MOTION_DOT":"0.00000969","EPOCH":"2022-07-27T19:20:17.321856","GP_ID":"208998151","NORAD_CAT_ID":"47811","SEMIMAJOR_AXIS":"6925.360","RA_OF_ASC_NODE":"41.3021","REF_FRAME":"TEME","ELEMENT_SET_NO":"999"}];
